1 44290U 19029BH  20260.00126030  .01825782  12081-4  39043-3 0  9993
2 44290  52.9991 114.6074 0009272 274.5217  85.7238 16.29872492 74494
1 44290U 19029BH  20260.06253074  .13881108  12160-4  25133-2 0  9997
2 44290  52.9953 114.2818 0009431 279.9412  80.2003 16.31563382 74507
